{
  "results": [
    {
      "datasource": {
        "sourcename": "openstreetmap",
        "attribution": "© OpenStreetMap contributors",
        "license": "Open Database License",
        "url": "https://www.openstreetmap.org/copyright"
      },
      "other_names": {
        "name:af": "Berlyn",
        "name:am": "በርሊን",
        "name:an": "Berlín",
        "name:ar": "برلين",
        "name:ba": "Берлин",
        "name:be": "Берлін",
        "name:bg": "Берлин",
        "name:bn": "বার্লিন",
        "name:bo": "པེ་ལིང་",
        "name:ca": "Berlín",
        "name:cs": "Berlín",
        "name:cu": "Берлинъ",
        "name:cv": "Берлин",
        "name:el": "Βερολίνο",
        "name:eo": "Berlino",
        "name:es": "Berlín",
        "name:et": "Berliin",
        "name:fa": "برلین",
        "name:fi": "Berliini",
        "name:fy": "Berlyn",
        "name:ga": "Beirlín",
        "name:gl": "Berlín",
        "name:gv": "Berleen",
        "name:he": "ברלין",
        "name:hi": "बर्लिन",
        "name:ht": "Bèlen",
        "name:hy": "Բեռլին",
        "name:is": "Berlín",
        "name:it": "Berlino",
        "name:ja": "ベルリン",
        "name:ka": "ბერლინი",
        "name:kk": "Берлин",
        "name:ko": "베를린",
        "name:ku": "Berlîn",
        "name:kv": "Берлин",
        "name:la": "Berolinum",
        "name:li": "Berlien",
        "name:lt": "Berlynas",
        "name:lv": "Berlīne",
        "name:mk": "Берлин",
        "name:ml": "ബെര്‍ലിന്",
        "name:mn": "Берлин",
        "name:mr": "बर्लिन",
        "name:nl": "Berlijn",
        "name:os": "Берлин",
        "name:pt": "Berlim",
        "name:ru": "Берлин",
        "name:sc": "Berlinu",
        "name:sk": "Berlín",
        "name:sq": "Berlini",
        "name:sr": "Берлин",
        "name:su": "Berliini",
        "name:ta": "பெர்லின்",
        "name:te": "బెర్లిన్",
        "name:tg": "Берлин",
        "name:th": "เบอร์ลิน",
        "name:tt": "Берлин",
        "name:uk": "Берлін",
        "name:ur": "برلن",
        "name:yi": "בערלין",
        "name:zh": "柏林",
        "name:arc": "ܒܪܠܝܢ",
        "name:ast": "Berlín",
        "name:csb": "Berlëno",
        "name:dsb": "Barliń",
        "name:frp": "Bèrlin",
        "name:haw": "Pelelina",
        "name:jbo": "berlin",
        "name:ksh": "Bälliin",
        "name:lzh": "柏林",
        "name:myv": "Берлин ош",
        "name:nap": "Berlino",
        "name:nrm": "Bèrlîn",
        "name:sah": "Берлин",
        "name:scn": "Birlinu",
        "name:tet": "Berlín",
        "name:vls": "Berlyn",
        "name:yue": "柏林",
        "ISO3166-2": "DE-BE",
        "name:ja_rm": "berurin",
        "name:short": "BE",
        "alt_name:vi": "Béc-lin",
        "old_name:vi": "Bá Linh",
        "name:bat-smg": "Berlīns",
        "name:cbk-zam": "Berlín",
        "name:ja-Hira": "べるりん",
        "name:roa-tara": "Berline",
        "name:ab": "Берлин",
        "name:av": "Берлин",
        "name:bh": "बर्लिन",
        "name:ce": "Берлин",
        "name:co": "Berlinu",
        "name:fj": "Belini",
        "name:gu": "બર્લિન",
        "name:iu": "ᐱᕐᓖᓐ",
        "name:km": "ប៊ែរឡាំង",
        "name:kn": "ಬೆರ್ಲಿನ್",
        "name:ks": "بٔرلِن",
        "name:ky": "Берлин",
        "name:lo": "ເບີລິນ",
        "name:mi": "Pearīni",
        "name:my": "ဘာလင်မြို့",
        "name:ne": "बर्लिन",
        "name:nv": "Tséítłʼiní Anííkaadii",
        "name:om": "Barliin",
        "name:pa": "ਬਰਲਿਨ",
        "name:ps": "برلين",
        "name:sa": "बर्लिन",
        "name:sd": "برلن",
        "name:si": "බර්ලිනය",
        "name:sm": "Perelini",
        "name:ti": "በርሊን",
        "name:to": "Pēlini",
        "name:tw": "Bɛɛlin",
        "name:ug": "Bérlin",
        "_place_name:vi": "Béc-lin",
        "name:xh": "I-Berlin",
        "name:be-tarask": "Бэрлін",
        "name:arz": "بيرلين",
        "name:bxr": "Берлин",
        "name:ckb": "بەرلین",
        "name:ext": "Berlín",
        "name:gan": "柏林",
        "name:kbd": "Берлин",
        "name:koi": "Берлин",
        "name:lez": "Берлин",
        "name:ltg": "Berlins",
        "name:mhr": "Берлин",
        "name:mrj": "Берлин",
        "_place_name:myv": "Берлин",
        "name:mzn": "برلین",
        "name:pfl": "Balin",
        "name:pnb": "برلن",
        "name:pnt": "Βερολίνον",
        "name:rue": "Берлін",
        "name:udm": "Берлин",
        "name:vro": "Berliin",
        "name:xmf": "ბერლინი",
        "name:zea": "Berlijn",
        "name:nds-nl": "Berlien",
        "name:zh-Hans": "柏林",
        "name:zh-Hant": "柏林"
      },
      "country": "Germany",
      "country_code": "de",
      "city": "Berlin",
      "iso3166_2": "DE-BE",
      "lon": 13.3989367,
      "lat": 52.510885,
      "result_type": "city",
      "formatted": "Berlin, Germany",
      "address_line1": "Berlin",
      "address_line2": "Germany",
      "category": "administrative",
      "timezone": {
        "name": "Europe/Berlin",
        "offset_STD": "+01:00",
        "offset_STD_seconds": 3600,
        "offset_DST": "+02:00",
        "offset_DST_seconds": 7200,
        "abbreviation_STD": "CET",
        "abbreviation_DST": "CEST"
      },
      "plus_code": "9F4MG96X+9H",
      "plus_code_short": "6X+9H Berlin, Germany",
      "rank": {
        "importance": 0.840425236063765,
        "popularity": 8.84398333023661,
        "confidence": 1,
        "confidence_city_level": 1,
        "match_type": "full_match"
      },
      "place_id": "512c595f6e41cc2a40592c82ffad64414a40f00101f901d6f3000000000000c00208",
      "bbox": {
        "lon1": 13.088345,
        "lat1": 52.3382448,
        "lon2": 13.7611609,
        "lat2": 52.6755087
      }
    }
  ],
  "query": {
    "text": "Berlin, Germany",
    "parsed": {
      "city": "berlin",
      "country": "germany",
      "expected_type": "city"
    }
  }
}
